[{"OBJECT_NAME":"ONEWEB-0362","OBJECT_ID":"2021-090K","EPOCH":"2026-03-09T16:56:03.238656","MEAN_MOTION":13.19725003,"ECCENTRICITY":0.00019248,"INCLINATION":87.9227,"RA_OF_ASC_NODE":324.8008,"ARG_OF_PERICENTER":83.0268,"MEAN_ANOMALY":277.1083,"EPHEMERIS_TYPE":0,"CLASSIFICATION_TYPE":"U","NORAD_CAT_ID":49288,"ELEMENT_SET_NO":999,"REV_AT_EPOCH":21379,"BSTAR":-0.00049299504,"MEAN_MOTION_DOT":-1.84e-6,"MEAN_MOTION_DDOT":0},{"OBJECT_NAME":"DELTA 1 DEB","OBJECT_ID":"1975-052DE","EPOCH":"2026-03-09T14:11:22.113024","MEAN_MOTION":12.91297451,"ECCENTRICITY":0.0294606,"INCLINATION":99.6405,"RA_OF_ASC_NODE":287.7123,"ARG_OF_PERICENTER":50.82,"MEAN_ANOMALY":6.6944,"EPHEMERIS_TYPE":0,"CLASSIFICATION_TYPE":"U","NORAD_CAT_ID":21384,"ELEMENT_SET_NO":999,"REV_AT_EPOCH":63807,"BSTAR":0.00068372,"MEAN_MOTION_DOT":1.86e-6,"MEAN_MOTION_DDOT":0}]
